ONEWEB-0716             
1 55177U 23004AP  25034.67606365 -.00000010  00000+0 -58000-4 0  9996
2 55177  87.9073 105.2062 0001831 107.7608 252.3723 13.17646861101930
ONEWEB-0717             
1 55178U 23004AQ  25034.58326541 -.00000054  00000+0 -17194-3 0  9998
2 55178  87.9088 105.1878 0002015  82.1421 277.9939 13.17648563101972
ONEWEB-0719             
1 55179U 23004AR  25034.74526118  .00000044  00000+0  79720-4 0  9990
2 55179  87.9070 105.1380 0001677 106.8872 253.2443 13.17648984101940
ONEWEB-0530             
1 55796U 23029A   25034.45925260  .00000040  00000+0  67489-4 0  9996
2 55796  87.9273  13.7072 0001467  68.6068 291.5222 13.20770188 95310
ONEWEB-0534             
1 55797U 23029B   25034.44662890  .00000088  00000+0  18333-3 0  9998
2 55797  87.9278  13.7164 0001848  87.1146 273.0199 13.20769242 95311
ONEWEB-0556             
1 55798U 23029C   25034.45293603  .00000052  00000+0  95846-4 0  9998
2 55798  87.9275  13.7082 0000974  85.7846 274.3398 13.20770805 95310
ONEWEB-0562             
1 55799U 23029D   25034.44031607  .00000070  00000+0  13987-3 0  9997
2 55799  87.9280  13.7023 0001219  55.3470 304.7778 13.20770481 95311
ONEWEB-0563             
1 55800U 23029E   25034.43400618  .00000106  00000+0  22783-3 0  9995
2 55800  87.9284  13.7178 0001853  94.4244 265.7101 13.20770612 95307
